KUIPER-00157            
1 65970U 25228Z   25337.54729304  .00046675  00000+0  13404-2 0  9991
2 65970  51.8798  64.9461 0006750 346.5230  13.5574 15.35359828  9001
